"{\n    \"CCSDS_OMM_VERS\": \"2.0\",\n    \"COMMENT\": \"GENERATED VIA SPACE-TRACK.ORG API\",\n    \"CREATION_DATE\": \"2025-08-31T17:37:22\",\n    \"ORIGINATOR\": \"18 SPCS\",\n    \"OBJECT_NAME\": \"GALILEO 13 (26A)\",\n    \"OBJECT_ID\": \"2016-030B\",\n    \"CENTER_NAME\": \"EARTH\",\n    \"REF_FRAME\": \"TEME\",\n    \"TIME_SYSTEM\": \"UTC\",\n    \"MEAN_ELEMENT_THEORY\": \"SGP4\",\n    \"EPOCH\": \"2025-08-31T06:44:41.095680\",\n    \"MEAN_MOTION\": \"1.7047373687\",\n    \"ECCENTRICITY\": \"0.00042003448\",\n    \"INCLINATION\": \"55.194121\",\n    \"RA_OF_ASC_NODE\": \"229.66442\",\n    \"ARG_OF_PERICENTER\": \"246.17666\",\n    \"MEAN_ANOMALY\": \"113.77317\",\n    \"EPHEMERIS_TYPE\": \"0\",\n    \"CLASSIFICATION_TYPE\": \"U\",\n    \"NORAD_CAT_ID\": \"41550\",\n    \"ELEMENT_SET_NO\": \"999\",\n    \"REV_AT_EPOCH\": \"5772\",\n    \"BSTAR\": \"0\",\n    \"MEAN_MOTION_DOT\": \"0.000000600419\",\n    \"MEAN_MOTION_DDOT\": \"0\",\n    \"TLE_LINE0\": \"0 GALILEO 13 (26A)\",\n    \"TLE_LINE1\": \"1 41550U 16030B   25243.28103120  .00000060  00000-0  00000-0 0  9994\",\n    \"TLE_LINE2\": \"2 41550  55.1941 229.6644 0004200 246.1767 113.7732  1.70473737 57728\",\n    \"SEMIMAJOR_AXIS\": \"29600.351\",\n    \"PERIOD\": \"844.705\",\n    \"APOAPSIS\": \"23234.649\",\n    \"PERIAPSIS\": \"23209.782\",\n    \"OBJECT_TYPE\": \"PAYLOAD\",\n    \"DECAYED\": \"0\"\n}"